CCSDS_OMM_VERS = 2.0
CREATION_DATE  = 
ORIGINATOR     = 

OBJECT_NAME    = ATLAS CENTAUR R/B
OBJECT_ID      = 1972-065B
CENTER_NAME    = EARTH
REF_FRAME      = TEME
TIME_SYSTEM    = UTC
MEAN_ELEMENT_THEORY = SGP/SGP4

EPOCH          = 2025-12-09T18:05:26.904768
MEAN_MOTION    = 14.77396346
ECCENTRICITY   = .0034255
INCLINATION    = 35.0008
RA_OF_ASC_NODE = 112.6880
ARG_OF_PERICENTER = 332.6599
MEAN_ANOMALY   = 27.2299

EPHEMERIS_TYPE = 0
CLASSIFICATION_TYPE = U
NORAD_CAT_ID   = 6155
ELEMENT_SET_NO = 999
REV_AT_EPOCH   = 82795
BSTAR          = .33234E-3
MEAN_MOTION_DOT = .2403E-4
MEAN_MOTION_DDOT = 0

CCSDS_OMM_VERS = 2.0
CREATION_DATE  = 
ORIGINATOR     = 

OBJECT_NAME    = SL-8 R/B
OBJECT_ID      = 1975-112B
CENTER_NAME    = EARTH
REF_FRAME      = TEME
TIME_SYSTEM    = UTC
MEAN_ELEMENT_THEORY = SGP/SGP4

EPOCH          = 2025-12-09T20:08:43.763424
MEAN_MOTION    = 14.38142444
ECCENTRICITY   = .0016555
INCLINATION    = 74.0594
RA_OF_ASC_NODE = 184.1931
ARG_OF_PERICENTER = 295.8155
MEAN_ANOMALY   = 64.1291

EPHEMERIS_TYPE = 0
CLASSIFICATION_TYPE = U
NORAD_CAT_ID   = 8459
ELEMENT_SET_NO = 999
REV_AT_EPOCH   = 61895
BSTAR          = .16327E-3
MEAN_MOTION_DOT = .47E-5
MEAN_MOTION_DDOT = 0

CCSDS_OMM_VERS = 2.0
CREATION_DATE  = 
ORIGINATOR     = 

OBJECT_NAME    = SL-3 R/B
OBJECT_ID      = 1977-057B
CENTER_NAME    = EARTH
REF_FRAME      = TEME
TIME_SYSTEM    = UTC
MEAN_ELEMENT_THEORY = SGP/SGP4

EPOCH          = 2025-12-09T18:32:41.313696
MEAN_MOTION    = 15.42834950
ECCENTRICITY   = .0006407
INCLINATION    = 97.5687
RA_OF_ASC_NODE = 146.9854
ARG_OF_PERICENTER = 245.3110
MEAN_ANOMALY   = 114.7470

EPHEMERIS_TYPE = 0
CLASSIFICATION_TYPE = U
NORAD_CAT_ID   = 10114
ELEMENT_SET_NO = 999
REV_AT_EPOCH   = 65445
BSTAR          = .4058E-3
MEAN_MOTION_DOT = .17725E-3
MEAN_MOTION_DDOT = 0

CCSDS_OMM_VERS = 2.0
CREATION_DATE  = 
ORIGINATOR     = 

OBJECT_NAME    = SEASAT 1
OBJECT_ID      = 1978-064A
CENTER_NAME    = EARTH
REF_FRAME      = TEME
TIME_SYSTEM    = UTC
MEAN_ELEMENT_THEORY = SGP/SGP4

EPOCH          = 2025-12-09T20:18:17.079264
MEAN_MOTION    = 14.46057230
ECCENTRICITY   = .0001714
INCLINATION    = 108.0112
RA_OF_ASC_NODE = 296.9630
ARG_OF_PERICENTER = 249.8493
MEAN_ANOMALY   = 110.2469

EPHEMERIS_TYPE = 0
CLASSIFICATION_TYPE = U
NORAD_CAT_ID   = 10967
ELEMENT_SET_NO = 999
REV_AT_EPOCH   = 49352
BSTAR          = .27384E-3
MEAN_MOTION_DOT = .841E-5
MEAN_MOTION_DDOT = 0

CCSDS_OMM_VERS = 2.0
CREATION_DATE  = 
ORIGINATOR     = 

OBJECT_NAME    = SL-14 R/B
OBJECT_ID      = 1979-011B
CENTER_NAME    = EARTH
REF_FRAME      = TEME
TIME_SYSTEM    = UTC
MEAN_ELEMENT_THEORY = SGP/SGP4

EPOCH          = 2025-12-09T20:04:49.749024
MEAN_MOTION    = 14.91764623
ECCENTRICITY   = .0016179
INCLINATION    = 82.5237
RA_OF_ASC_NODE = 181.7976
ARG_OF_PERICENTER = 3.1505
MEAN_ANOMALY   = 356.9813

EPHEMERIS_TYPE = 0
CLASSIFICATION_TYPE = U
NORAD_CAT_ID   = 11267
ELEMENT_SET_NO = 999
REV_AT_EPOCH   = 51538
BSTAR          = .91515E-4
MEAN_MOTION_DOT = .949E-5
MEAN_MOTION_DDOT = 0

CCSDS_OMM_VERS = 2.0
CREATION_DATE  = 
ORIGINATOR     = 

OBJECT_NAME    = SL-8 R/B
OBJECT_ID      = 1979-089B
CENTER_NAME    = EARTH
REF_FRAME      = TEME
TIME_SYSTEM    = UTC
MEAN_ELEMENT_THEORY = SGP/SGP4

EPOCH          = 2025-12-09T18:49:26.035104
MEAN_MOTION    = 14.42281054
ECCENTRICITY   = .0014442
INCLINATION    = 74.0693
RA_OF_ASC_NODE = 257.4487
ARG_OF_PERICENTER = 93.0967
MEAN_ANOMALY   = 267.1842

EPHEMERIS_TYPE = 0
CLASSIFICATION_TYPE = U
NORAD_CAT_ID   = 11574
ELEMENT_SET_NO = 999
REV_AT_EPOCH   = 42314
BSTAR          = .1822E-3
MEAN_MOTION_DOT = .576E-5
MEAN_MOTION_DDOT = 0

CCSDS_OMM_VERS = 2.0
CREATION_DATE  = 
ORIGINATOR     = 

OBJECT_NAME    = SL-14 R/B
OBJECT_ID      = 1980-005B
CENTER_NAME    = EARTH
REF_FRAME      = TEME
TIME_SYSTEM    = UTC
MEAN_ELEMENT_THEORY = SGP/SGP4

EPOCH          = 2025-12-09T09:18:46.513440
MEAN_MOTION    = 14.90786328
ECCENTRICITY   = .00172974
INCLINATION    = 82.5153
RA_OF_ASC_NODE = 32.8782
ARG_OF_PERICENTER = 103.6226
MEAN_ANOMALY   = 256.6921

EPHEMERIS_TYPE = 0
CLASSIFICATION_TYPE = U
NORAD_CAT_ID   = 11672
ELEMENT_SET_NO = 999
REV_AT_EPOCH   = 46303
BSTAR          = .10403929E-3
MEAN_MOTION_DOT = .1051E-4
MEAN_MOTION_DDOT = 0

CCSDS_OMM_VERS = 2.0
CREATION_DATE  = 
ORIGINATOR     = 

OBJECT_NAME    = SL-8 R/B
OBJECT_ID      = 1981-003B
CENTER_NAME    = EARTH
REF_FRAME      = TEME
TIME_SYSTEM    = UTC
MEAN_ELEMENT_THEORY = SGP/SGP4

EPOCH          = 2025-12-09T11:36:54.028224
MEAN_MOTION    = 15.06891840
ECCENTRICITY   = .02801229
INCLINATION    = 82.9289
RA_OF_ASC_NODE = 13.1997
ARG_OF_PERICENTER = 131.4231
MEAN_ANOMALY   = 231.1441

EPHEMERIS_TYPE = 0
CLASSIFICATION_TYPE = U
NORAD_CAT_ID   = 12139
ELEMENT_SET_NO = 999
REV_AT_EPOCH   = 30107
BSTAR          = .52720307E-3
MEAN_MOTION_DOT = .19856E-3
MEAN_MOTION_DDOT = 0

CCSDS_OMM_VERS = 2.0
CREATION_DATE  = 
ORIGINATOR     = 

OBJECT_NAME    = SL-3 R/B
OBJECT_ID      = 1981-046B
CENTER_NAME    = EARTH
REF_FRAME      = TEME
TIME_SYSTEM    = UTC
MEAN_ELEMENT_THEORY = SGP/SGP4

EPOCH          = 2025-12-09T20:01:53.964768
MEAN_MOTION    = 15.39512903
ECCENTRICITY   = .0019076
INCLINATION    = 81.2329
RA_OF_ASC_NODE = 37.4129
ARG_OF_PERICENTER = 334.8111
MEAN_ANOMALY   = 25.2198

EPHEMERIS_TYPE = 0
CLASSIFICATION_TYPE = U
NORAD_CAT_ID   = 12465
ELEMENT_SET_NO = 999
REV_AT_EPOCH   = 42459
BSTAR          = .39077E-3
MEAN_MOTION_DOT = .15478E-3
MEAN_MOTION_DDOT = 0

CCSDS_OMM_VERS = 2.0
CREATION_DATE  = 
ORIGINATOR     = 

OBJECT_NAME    = SL-3 R/B
OBJECT_ID      = 1981-103B
CENTER_NAME    = EARTH
REF_FRAME      = TEME
TIME_SYSTEM    = UTC
MEAN_ELEMENT_THEORY = SGP/SGP4

EPOCH          = 2025-12-09T19:54:48.665088
MEAN_MOTION    = 15.20175047
ECCENTRICITY   = .0011373
INCLINATION    = 81.1590
RA_OF_ASC_NODE = 318.7615
ARG_OF_PERICENTER = 223.7959
MEAN_ANOMALY   = 136.2371

EPHEMERIS_TYPE = 0
CLASSIFICATION_TYPE = U
NORAD_CAT_ID   = 12904
ELEMENT_SET_NO = 999
REV_AT_EPOCH   = 95957
BSTAR          = .44585E-3
MEAN_MOTION_DOT = .9694E-4
MEAN_MOTION_DDOT = 0

CCSDS_OMM_VERS = 2.0
CREATION_DATE  = 
ORIGINATOR     = 

OBJECT_NAME    = SL-3 R/B
OBJECT_ID      = 1982-013B
CENTER_NAME    = EARTH
REF_FRAME      = TEME
TIME_SYSTEM    = UTC
MEAN_ELEMENT_THEORY = SGP/SGP4

EPOCH          = 2025-12-09T17:58:26.916960
MEAN_MOTION    = 15.21039875
ECCENTRICITY   = .0024034
INCLINATION    = 81.1748
RA_OF_ASC_NODE = 266.1098
ARG_OF_PERICENTER = 120.1876
MEAN_ANOMALY   = 240.1741

EPHEMERIS_TYPE = 0
CLASSIFICATION_TYPE = U
NORAD_CAT_ID   = 13068
ELEMENT_SET_NO = 999
REV_AT_EPOCH   = 39067
BSTAR          = .32317E-3
MEAN_MOTION_DOT = .7256E-4
MEAN_MOTION_DDOT = 0

CCSDS_OMM_VERS = 2.0
CREATION_DATE  = 
ORIGINATOR     = 

OBJECT_NAME    = SL-3 R/B
OBJECT_ID      = 1982-039B
CENTER_NAME    = EARTH
REF_FRAME      = TEME
TIME_SYSTEM    = UTC
MEAN_ELEMENT_THEORY = SGP/SGP4

EPOCH          = 2025-12-09T18:56:05.980704
MEAN_MOTION    = 15.09498438
ECCENTRICITY   = .0029833
INCLINATION    = 81.1728
RA_OF_ASC_NODE = 319.4915
ARG_OF_PERICENTER = 262.3755
MEAN_ANOMALY   = 97.4082

EPHEMERIS_TYPE = 0
CLASSIFICATION_TYPE = U
NORAD_CAT_ID   = 13154
ELEMENT_SET_NO = 999
REV_AT_EPOCH   = 36807
BSTAR          = .3131E-3
MEAN_MOTION_DOT = .5091E-4
MEAN_MOTION_DDOT = 0

