ATLAS CENTAUR R/B       
1 06155U 72065B   25343.75378362  .00002403  00000+0  33234-3 0  9991
2 06155  35.0008 112.6880 0034255 332.6599  27.2299 14.77396346827959
SL-8 R/B                
1 08459U 75112B   25343.83939541  .00000470  00000+0  16327-3 0  9993
2 08459  74.0594 184.1931 0016555 295.8155  64.1291 14.38142444618958
SL-3 R/B                
1 10114U 77057B   25343.77270039  .00017725  00000+0  40580-3 0  9996
2 10114  97.5687 146.9854 0006407 245.3110 114.7470 15.42834950654450
SEASAT 1                
1 10967U 78064A   25343.84603101  .00000841  00000+0  27384-3 0  9997
2 10967 108.0112 296.9630 0001714 249.8493 110.2469 14.46057230493523
SL-14 R/B               
1 11267U 79011B   25343.83668691  .00000949  00000+0  91515-4 0  9995
2 11267  82.5237 181.7976 0016179   3.1505 356.9813 14.91764623515383
SL-8 R/B                
1 11574U 79089B   25343.78432911  .00000576  00000+0  18220-3 0  9996
2 11574  74.0693 257.4487 0014442  93.0967 267.1842 14.42281054423140
SL-14 R/B               
1 11672U 80005B   25343.38803835  .00001051  00000+0  10404-3 0  9993
2 11672  82.5153  32.8782 0017297 103.6226 256.6921 14.90786328463034
SL-8 R/B                
1 12139U 81003B   25343.48395866  .00019856  00000+0  52720-3 0  9991
2 12139  82.9289  13.1997 0280122 131.4231 231.1441 15.06891840301075
SL-3 R/B                
1 12465U 81046B   25343.83465237  .00015478  00000+0  39077-3 0  9995
2 12465  81.2329  37.4129 0019076 334.8111  25.2198 15.39512903424594
SL-3 R/B                
1 12904U 81103B   25343.82972992  .00009694  00000+0  44585-3 0  9990
2 12904  81.1590 318.7615 0011373 223.7959 136.2371 15.20175047959575
SL-3 R/B                
1 13068U 82013B   25343.74892265  .00007256  00000+0  32317-3 0  9990
2 13068  81.1748 266.1098 0024034 120.1876 240.1741 15.21039875390674
SL-3 R/B                
1 13154U 82039B   25343.78895811  .00005091  00000+0  31310-3 0  9995
2 13154  81.1728 319.4915 0029833 262.3755  97.4082 15.09498438368075
